ONEWEB-0171             
1 48070U 21025AE  25276.29977605 -.00000333  00000+0 -94651-3 0  9994
2 48070  87.9042  11.2890 0001823 104.5264 255.6068 13.13468496219894
ONEWEB-0172             
1 48071U 21025AF  25276.27947499  .00000001  00000+0 -31146-4 0  9993
2 48071  87.9057  11.2635 0001877 106.2035 253.9301 13.13469717220780
ONEWEB-0174             
1 48072U 21025AG  25276.26085103  .00000347  00000+0  91524-3 0  9995
2 48072  87.9050  11.2782 0001975  98.6135 261.5218 13.13469507220106
ONEWEB-0175             
1 48073U 21025AH  25276.29130879 -.00000250  00000+0 -72010-3 0  9994
2 48073  87.9050  11.2371 0001710 111.2104 248.9208 13.13468566219768
ONEWEB-0177             
1 48074U 21025AJ  25276.30316866 -.00000196  00000+0 -57184-3 0  9993
2 48074  87.9055  11.2525 0002011 101.1298 259.0058 13.13469557219950
ONEWEB-0178             
1 48075U 21025AK  25276.24575051  .00000265  00000+0  68995-3 0  9997
2 48075  87.9049  11.3098 0001962 109.6049 250.5292 13.13470155219997
ONEWEB-0108             
1 48076U 21025AL  25276.28115725 -.00000060  00000+0 -20026-3 0  9998
2 48076  87.9053  11.2484 0001766  93.8411 266.2920 13.13468380219922
ONEWEB-0169             
1 48077U 21025AM  25276.23714725  .00000103  00000+0  24690-3 0  9996
2 48077  87.9046  11.2801 0001802  94.3450 265.7885 13.13470736218570
